{"fetched_at":"2026-03-30T20:46:33Z","count":15425,"tles":[{"name":"STARLINK-2578","line1":"1 48362U 21038K   26087.78024934  .00014424  00000+0  49771-3 0  9992","line2":"2 48362  53.1585 269.4709 0000822  85.5080 274.6015 15.30230976270007","category":"Starlink"}]}