{
  "norad_id": 48362,
  "name": "STARLINK-2578",
  "history": [
    {
      "epoch": "2026-03-28T18:43:33.542976",
      "apogee_km": 475.6863313602071,
      "perigee_km": 474.55883309373985,
      "latitude_deg": 9.070269658852261,
      "longitude_deg": 171.10393663984723,
      "semi_major_axis_km": 6853.259582226973,
      "eccentricity": 8.226e-05,
      "inclination_deg": 53.1585,
      "raan_deg": 269.4709,
      "arg_perigee_deg": 85.508,
      "mean_anomaly_deg": 274.6015,
      "mean_motion_rev_day": 15.30230976
    }
  ]
}